ORBCOMM FM37            
1 33064U 08031E   24202.92501027  .00003734  00000+0  55479-3 0  9993
2 33064  48.4401 115.3172 0005694  35.7055  13.7479 14.76853990865033
ORBCOMM FM40            
1 33065U 08031F   24202.92361104  .00005111  00000+0  72394-3 0  9990
2 33065  48.4421 103.9809 0006886  46.7394   8.1678 14.78284293865088
VESSELSAT 1             
1 37840U 11058C   24202.91889647  .00000514  00000+0  13583-3 0  9991
2 37840  19.9624 298.1551 0013735 142.4209 217.7157 14.11177301659452
ORBCOMM FM109           
1 40086U 14040A   24202.90622731  .00002191  00000+0  52143-3 0  9997
2 40086  47.0022 139.4831 0002277 250.0057 110.0583 14.56840892532736
ORBCOMM FM107           
1 40087U 14040B   24202.87142229  .00002144  00000+0  51089-3 0  9999
2 40087  47.0041 140.6190 0001326 226.3235 133.7540 14.56842644532808
ORBCOMM FM106           
1 40088U 14040C   24202.89973007  .00002903  00000+0  54019-3 0  9997
2 40088  47.0617 348.3235 0018009 325.3203  34.6512 14.67325925534783
ORBCOMM FM111           
1 40089U 14040D   24202.81949470  .00004126  00000+0  53239-3 0  9999
2 40089  47.0020 241.2335 0032285  47.2330 313.1273 14.82263524540999
ORBCOMM FM104           
1 40090U 14040E   24202.91669131  .00001686  00000+0  42296-3 0  9994
2 40090  47.0043 170.1297 0016159 132.3713 227.8542 14.55313055532341
