<?xml version="1.0" encoding="UTF-8"?>
<ndm xmlns:xsi="http://www.w3.org/2001/XMLSchema-instance" xsi:noNamespaceSchemaLocation="https://sanaregistry.org/r/ndmxml_unqualified/ndmxml-2.0.0-master-2.0.xsd">
<omm id="CCSDS_OMM_VERS" version="2.0">
<header><CREATION_DATE/><ORIGINATOR/></header><body><segment><metadata><OBJECT_NAME>ORBCOMM FM37</OBJECT_NAME><OBJECT_ID>2008-031E</OBJECT_ID><CENTER_NAME>EARTH</CENTER_NAME><REF_FRAME>TEME</REF_FRAME><TIME_SYSTEM>UTC</TIME_SYSTEM><MEAN_ELEMENT_THEORY>SGP4</MEAN_ELEMENT_THEORY></metadata><data><meanElements><EPOCH>2024-07-20T22:12:00.887328</EPOCH><MEAN_MOTION>14.76853990</MEAN_MOTION><ECCENTRICITY>.0005694</ECCENTRICITY><INCLINATION>48.4401</INCLINATION><RA_OF_ASC_NODE>115.3172</RA_OF_ASC_NODE><ARG_OF_PERICENTER>35.7055</ARG_OF_PERICENTER><MEAN_ANOMALY>13.7479</MEAN_ANOMALY></meanElements><tleParameters><EPHEMERIS_TYPE>0</EPHEMERIS_TYPE><CLASSIFICATION_TYPE>U</CLASSIFICATION_TYPE><NORAD_CAT_ID>33064</NORAD_CAT_ID><ELEMENT_SET_NO>999</ELEMENT_SET_NO><REV_AT_EPOCH>86503</REV_AT_EPOCH><BSTAR>.55479E-3</BSTAR><MEAN_MOTION_DOT>.3734E-4</MEAN_MOTION_DOT><MEAN_MOTION_DDOT>0</MEAN_MOTION_DDOT></tleParameters></data></segment></body></omm>
<omm id="CCSDS_OMM_VERS" version="2.0">
<header><CREATION_DATE/><ORIGINATOR/></header><body><segment><metadata><OBJECT_NAME>ORBCOMM FM40</OBJECT_NAME><OBJECT_ID>2008-031F</OBJECT_ID><CENTER_NAME>EARTH</CENTER_NAME><REF_FRAME>TEME</REF_FRAME><TIME_SYSTEM>UTC</TIME_SYSTEM><MEAN_ELEMENT_THEORY>SGP4</MEAN_ELEMENT_THEORY></metadata><data><meanElements><EPOCH>2024-07-20T22:09:59.993856</EPOCH><MEAN_MOTION>14.78284293</MEAN_MOTION><ECCENTRICITY>.0006886</ECCENTRICITY><INCLINATION>48.4421</INCLINATION><RA_OF_ASC_NODE>103.9809</RA_OF_ASC_NODE><ARG_OF_PERICENTER>46.7394</ARG_OF_PERICENTER><MEAN_ANOMALY>8.1678</MEAN_ANOMALY></meanElements><tleParameters><EPHEMERIS_TYPE>0</EPHEMERIS_TYPE><CLASSIFICATION_TYPE>U</CLASSIFICATION_TYPE><NORAD_CAT_ID>33065</NORAD_CAT_ID><ELEMENT_SET_NO>999</ELEMENT_SET_NO><REV_AT_EPOCH>86508</REV_AT_EPOCH><BSTAR>.72394E-3</BSTAR><MEAN_MOTION_DOT>.5111E-4</MEAN_MOTION_DOT><MEAN_MOTION_DDOT>0</MEAN_MOTION_DDOT></tleParameters></data></segment></body></omm>
<omm id="CCSDS_OMM_VERS" version="2.0">
<header><CREATION_DATE/><ORIGINATOR/></header><body><segment><metadata><OBJECT_NAME>VESSELSAT 1</OBJECT_NAME><OBJECT_ID>2011-058C</OBJECT_ID><CENTER_NAME>EARTH</CENTER_NAME><REF_FRAME>TEME</REF_FRAME><TIME_SYSTEM>UTC</TIME_SYSTEM><MEAN_ELEMENT_THEORY>SGP4</MEAN_ELEMENT_THEORY></metadata><data><meanElements><EPOCH>2024-07-20T22:03:12.655008</EPOCH><MEAN_MOTION>14.11177301</MEAN_MOTION><ECCENTRICITY>.0013735</ECCENTRICITY><INCLINATION>19.9624</INCLINATION><RA_OF_ASC_NODE>298.1551</RA_OF_ASC_NODE><ARG_OF_PERICENTER>142.4209</ARG_OF_PERICENTER><MEAN_ANOMALY>217.7157</MEAN_ANOMALY></meanElements><tleParameters><EPHEMERIS_TYPE>0</EPHEMERIS_TYPE><CLASSIFICATION_TYPE>U</CLASSIFICATION_TYPE><NORAD_CAT_ID>37840</NORAD_CAT_ID><ELEMENT_SET_NO>999</ELEMENT_SET_NO><REV_AT_EPOCH>65945</REV_AT_EPOCH><BSTAR>.13583E-3</BSTAR><MEAN_MOTION_DOT>.514E-5</MEAN_MOTION_DOT><MEAN_MOTION_DDOT>0</MEAN_MOTION_DDOT></tleParameters></data></segment></body></omm>
<omm id="CCSDS_OMM_VERS" version="2.0">
<header><CREATION_DATE/><ORIGINATOR/></header><body><segment><metadata><OBJECT_NAME>ORBCOMM FM109</OBJECT_NAME><OBJECT_ID>2014-040A</OBJECT_ID><CENTER_NAME>EARTH</CENTER_NAME><REF_FRAME>TEME</REF_FRAME><TIME_SYSTEM>UTC</TIME_SYSTEM><MEAN_ELEMENT_THEORY>SGP4</MEAN_ELEMENT_THEORY></metadata><data><meanElements><EPOCH>2024-07-20T21:44:58.039584</EPOCH><MEAN_MOTION>14.56840892</MEAN_MOTION><ECCENTRICITY>.0002277</ECCENTRICITY><INCLINATION>47.0022</INCLINATION><RA_OF_ASC_NODE>139.4831</RA_OF_ASC_NODE><ARG_OF_PERICENTER>250.0057</ARG_OF_PERICENTER><MEAN_ANOMALY>110.0583</MEAN_ANOMALY></meanElements><tleParameters><EPHEMERIS_TYPE>0</EPHEMERIS_TYPE><CLASSIFICATION_TYPE>U</CLASSIFICATION_TYPE><NORAD_CAT_ID>40086</NORAD_CAT_ID><ELEMENT_SET_NO>999</ELEMENT_SET_NO><REV_AT_EPOCH>53273</REV_AT_EPOCH><BSTAR>.52143E-3</BSTAR><MEAN_MOTION_DOT>.2191E-4</MEAN_MOTION_DOT><MEAN_MOTION_DDOT>0</MEAN_MOTION_DDOT></tleParameters></data></segment></body></omm>
<omm id="CCSDS_OMM_VERS" version="2.0">
<header><CREATION_DATE/><ORIGINATOR/></header><body><segment><metadata><OBJECT_NAME>ORBCOMM FM107</OBJECT_NAME><OBJECT_ID>2014-040B</OBJECT_ID><CENTER_NAME>EARTH</CENTER_NAME><REF_FRAME>TEME</REF_FRAME><TIME_SYSTEM>UTC</TIME_SYSTEM><MEAN_ELEMENT_THEORY>SGP4</MEAN_ELEMENT_THEORY></metadata><data><meanElements><EPOCH>2024-07-20T20:54:50.885856</EPOCH><MEAN_MOTION>14.56842644</MEAN_MOTION><ECCENTRICITY>.0001326</ECCENTRICITY><INCLINATION>47.0041</INCLINATION><RA_OF_ASC_NODE>140.6190</RA_OF_ASC_NODE><ARG_OF_PERICENTER>226.3235</ARG_OF_PERICENTER><MEAN_ANOMALY>133.7540</MEAN_ANOMALY></meanElements><tleParameters><EPHEMERIS_TYPE>0</EPHEMERIS_TYPE><CLASSIFICATION_TYPE>U</CLASSIFICATION_TYPE><NORAD_CAT_ID>40087</NORAD_CAT_ID><ELEMENT_SET_NO>999</ELEMENT_SET_NO><REV_AT_EPOCH>53280</REV_AT_EPOCH><BSTAR>.51089E-3</BSTAR><MEAN_MOTION_DOT>.2144E-4</MEAN_MOTION_DOT><MEAN_MOTION_DDOT>0</MEAN_MOTION_DDOT></tleParameters></data></segment></body></omm>
<omm id="CCSDS_OMM_VERS" version="2.0">
<header><CREATION_DATE/><ORIGINATOR/></header><body><segment><metadata><OBJECT_NAME>ORBCOMM FM106</OBJECT_NAME><OBJECT_ID>2014-040C</OBJECT_ID><CENTER_NAME>EARTH</CENTER_NAME><REF_FRAME>TEME</REF_FRAME><TIME_SYSTEM>UTC</TIME_SYSTEM><MEAN_ELEMENT_THEORY>SGP4</MEAN_ELEMENT_THEORY></metadata><data><meanElements><EPOCH>2024-07-20T21:35:36.678048</EPOCH><MEAN_MOTION>14.67325925</MEAN_MOTION><ECCENTRICITY>.0018009</ECCENTRICITY><INCLINATION>47.0617</INCLINATION><RA_OF_ASC_NODE>348.3235</RA_OF_ASC_NODE><ARG_OF_PERICENTER>325.3203</ARG_OF_PERICENTER><MEAN_ANOMALY>34.6512</MEAN_ANOMALY></meanElements><tleParameters><EPHEMERIS_TYPE>0</EPHEMERIS_TYPE><CLASSIFICATION_TYPE>U</CLASSIFICATION_TYPE><NORAD_CAT_ID>40088</NORAD_CAT_ID><ELEMENT_SET_NO>999</ELEMENT_SET_NO><REV_AT_EPOCH>53478</REV_AT_EPOCH><BSTAR>.54019E-3</BSTAR><MEAN_MOTION_DOT>.2903E-4</MEAN_MOTION_DOT><MEAN_MOTION_DDOT>0</MEAN_MOTION_DDOT></tleParameters></data></segment></body></omm>
<omm id="CCSDS_OMM_VERS" version="2.0">
<header><CREATION_DATE/><ORIGINATOR/></header><body><segment><metadata><OBJECT_NAME>ORBCOMM FM111</OBJECT_NAME><OBJECT_ID>2014-040D</OBJECT_ID><CENTER_NAME>EARTH</CENTER_NAME><REF_FRAME>TEME</REF_FRAME><TIME_SYSTEM>UTC</TIME_SYSTEM><MEAN_ELEMENT_THEORY>SGP4</MEAN_ELEMENT_THEORY></metadata><data><meanElements><EPOCH>2024-07-20T19:40:04.342080</EPOCH><MEAN_MOTION>14.82263524</MEAN_MOTION><ECCENTRICITY>.0032285</ECCENTRICITY><INCLINATION>47.0020</INCLINATION><RA_OF_ASC_NODE>241.2335</RA_OF_ASC_NODE><ARG_OF_PERICENTER>47.2330</ARG_OF_PERICENTER><MEAN_ANOMALY>313.1273</MEAN_ANOMALY></meanElements><tleParameters><EPHEMERIS_TYPE>0</EPHEMERIS_TYPE><CLASSIFICATION_TYPE>U</CLASSIFICATION_TYPE><NORAD_CAT_ID>40089</NORAD_CAT_ID><ELEMENT_SET_NO>999</ELEMENT_SET_NO><REV_AT_EPOCH>54099</REV_AT_EPOCH><BSTAR>.53239E-3</BSTAR><MEAN_MOTION_DOT>.4126E-4</MEAN_MOTION_DOT><MEAN_MOTION_DDOT>0</MEAN_MOTION_DDOT></tleParameters></data></segment></body></omm>
<omm id="CCSDS_OMM_VERS" version="2.0">
<header><CREATION_DATE/><ORIGINATOR/></header><body><segment><metadata><OBJECT_NAME>ORBCOMM FM104</OBJECT_NAME><OBJECT_ID>2014-040E</OBJECT_ID><CENTER_NAME>EARTH</CENTER_NAME><REF_FRAME>TEME</REF_FRAME><TIME_SYSTEM>UTC</TIME_SYSTEM><MEAN_ELEMENT_THEORY>SGP4</MEAN_ELEMENT_THEORY></metadata><data><meanElements><EPOCH>2024-07-20T22:00:02.129184</EPOCH><MEAN_MOTION>14.55313055</MEAN_MOTION><ECCENTRICITY>.0016159</ECCENTRICITY><INCLINATION>47.0043</INCLINATION><RA_OF_ASC_NODE>170.1297</RA_OF_ASC_NODE><ARG_OF_PERICENTER>132.3713</ARG_OF_PERICENTER><MEAN_ANOMALY>227.8542</MEAN_ANOMALY></meanElements><tleParameters><EPHEMERIS_TYPE>0</EPHEMERIS_TYPE><CLASSIFICATION_TYPE>U</CLASSIFICATION_TYPE><NORAD_CAT_ID>40090</NORAD_CAT_ID><ELEMENT_SET_NO>999</ELEMENT_SET_NO><REV_AT_EPOCH>53234</REV_AT_EPOCH><BSTAR>.42296E-3</BSTAR><MEAN_MOTION_DOT>.1686E-4</MEAN_MOTION_DOT><MEAN_MOTION_DDOT>0</MEAN_MOTION_DDOT></tleParameters></data></segment></body></omm>

</ndm>
